[{"OBJECT_NAME":"PALISADE","OBJECT_ID":"2019-069A","EPOCH":"2026-03-09T16:08:09.565152","MEAN_MOTION":13.11903827,"ECCENTRICITY":0.0008751,"INCLINATION":87.8869,"RA_OF_ASC_NODE":299.6164,"ARG_OF_PERICENTER":344.4129,"MEAN_ANOMALY":15.6728,"EPHEMERIS_TYPE":0,"CLASSIFICATION_TYPE":"U","NORAD_CAT_ID":44634,"ELEMENT_SET_NO":999,"REV_AT_EPOCH":30606,"BSTAR":-0.0010924646,"MEAN_MOTION_DOT":-3.77e-6,"MEAN_MOTION_DDOT":0},{"OBJECT_NAME":"ONEWEB-0153","OBJECT_ID":"2021-025C","EPOCH":"2026-03-09T18:07:54.566688","MEAN_MOTION":13.13470158,"ECCENTRICITY":0.00017991,"INCLINATION":87.9038,"RA_OF_ASC_NODE":340.0046,"ARG_OF_PERICENTER":75.5344,"MEAN_ANOMALY":284.5985,"EPHEMERIS_TYPE":0,"CLASSIFICATION_TYPE":"U","NORAD_CAT_ID":48044,"ELEMENT_SET_NO":999,"REV_AT_EPOCH":24049,"BSTAR":0.00043227942,"MEAN_MOTION_DOT":1.71e-6,"MEAN_MOTION_DDOT":0}]
