PALISADE                
1 44634U 19069A   26068.67233292 -.00000377  00000+0 -10925-2 0  9999
2 44634  87.8869 299.6164 0008751 344.4129  15.6728 13.11903827306063
ONEWEB-0153             
1 48044U 21025C   26068.75549266  .00000171  00000+0  43228-3 0  9996
2 48044  87.9038 340.0046 0001799  75.5344 284.5985 13.13470158240491
